[
  {
    "COMMENT": "GENERATED VIA SPACETRACK.ORG API",
    "ORIGINATOR": "18 SPCS",
    "NORAD_CAT_ID": "43682",
    "OBJECT_NAME": "H-2A R/B",
    "OBJECT_TYPE": "ROCKET BODY",
    "CLASSIFICATION_TYPE": "U",
    "INTLDES": "18084L",
    "EPOCH": "2023-06-21 16:10:23",
    "EPOCH_MICROSECONDS": "22912",
    "MEAN_MOTION": "15.0860178",
    "ECCENTRICITY": "0.0051972",
    "INCLINATION": "98.8933",
    "RA_OF_ASC_NODE": "197.5068",
    "ARG_OF_PERICENTER": "128.2411",
    "MEAN_ANOMALY": "232.3507",
    "EPHEMERIS_TYPE": "0",
    "ELEMENT_SET_NO": "999",
    "REV_AT_EPOCH": "25489",
    "BSTAR": "0.00040716",
    "MEAN_MOTION_DOT": "0.00006486",
    "MEAN_MOTION_DDOT": "0",
    "FILE": "3939211",
    "TLE_LINE0": "0 H-2A R/B",
    "TLE_LINE1": "1 43682U 18084L   23172.67387758  .00006486  00000-0  40716-3 0  9995",
    "TLE_LINE2": "2 43682  98.8933 197.5068 0051972 128.2411 232.3507 15.08601780254890",
    "OBJECT_ID": "2018-084L",
    "OBJECT_NUMBER": "43682",
    "SEMIMAJOR_AXIS": "6918.609",
    "PERIOD": "95.453",
    "APOGEE": "576.431",
    "PERIGEE": "504.516",
    "DECAYED": "0"
  },
  {
    "COMMENT": "GENERATED VIA SPACETRACK.ORG API",
    "ORIGINATOR": "18 SPCS",
    "NORAD_CAT_ID": "43682",
    "OBJECT_NAME": "H-2A R/B",
    "OBJECT_TYPE": "ROCKET BODY",
    "CLASSIFICATION_TYPE": "U",
    "INTLDES": "18084L",
    "EPOCH": "2023-06-21 19:21:24",
    "EPOCH_MICROSECONDS": "326784",
    "MEAN_MOTION": "15.08603562",
    "ECCENTRICITY": "0.0051989",
    "INCLINATION": "98.8933",
    "RA_OF_ASC_NODE": "197.6603",
    "ARG_OF_PERICENTER": "127.8426",
    "MEAN_ANOMALY": "232.752",
    "EPHEMERIS_TYPE": "0",
    "ELEMENT_SET_NO": "999",
    "REV_AT_EPOCH": "25491",
    "BSTAR": "0.000406",
    "MEAN_MOTION_DOT": "0.00006468",
    "MEAN_MOTION_DDOT": "0",
    "FILE": "3940263",
    "TLE_LINE0": "0 H-2A R/B",
    "TLE_LINE1": "1 43682U 18084L   23172.80653156  .00006468  00000-0  40600-3 0  9990",
    "TLE_LINE2": "2 43682  98.8933 197.6603 0051989 127.8426 232.7520 15.08603562254917",
    "OBJECT_ID": "2018-084L",
    "OBJECT_NUMBER": "43682",
    "SEMIMAJOR_AXIS": "6918.603",
    "PERIOD": "95.453",
    "APOGEE": "576.437",
    "PERIGEE": "504.499",
    "DECAYED": "0"
  },
  {
    "COMMENT": "GENERATED VIA SPACETRACK.ORG API",
    "ORIGINATOR": "18 SPCS",
    "NORAD_CAT_ID": "43682",
    "OBJECT_NAME": "H-2A R/B",
    "OBJECT_TYPE": "ROCKET BODY",
    "CLASSIFICATION_TYPE": "U",
    "INTLDES": "18084L",
    "EPOCH": "2023-06-22 19:14:03",
    "EPOCH_MICROSECONDS": "699744",
    "MEAN_MOTION": "15.08618373",
    "ECCENTRICITY": "0.0052053",
    "INCLINATION": "98.8935",
    "RA_OF_ASC_NODE": "198.8118",
    "ARG_OF_PERICENTER": "124.5916",
    "MEAN_ANOMALY": "236.0235",
    "EPHEMERIS_TYPE": "0",
    "ELEMENT_SET_NO": "999",
    "REV_AT_EPOCH": "25506",
    "BSTAR": "0.00044108",
    "MEAN_MOTION_DOT": "0.00007039",
    "MEAN_MOTION_DDOT": "0",
    "FILE": "3940050",
    "TLE_LINE0": "0 H-2A R/B",
    "TLE_LINE1": "1 43682U 18084L   23173.80143171  .00007039  00000-0  44108-3 0  9994",
    "TLE_LINE2": "2 43682  98.8935 198.8118 0052053 124.5916 236.0235 15.08618373255067",
    "OBJECT_ID": "2018-084L",
    "OBJECT_NUMBER": "43682",
    "SEMIMAJOR_AXIS": "6918.558",
    "PERIOD": "95.452",
    "APOGEE": "576.436",
    "PERIGEE": "504.410",
    "DECAYED": "0"
  },
  {
    "COMMENT": "GENERATED VIA SPACETRACK.ORG API",
    "ORIGINATOR": "18 SPCS",
    "NORAD_CAT_ID": "43682",
    "OBJECT_NAME": "H-2A R/B",
    "OBJECT_TYPE": "ROCKET BODY",
    "CLASSIFICATION_TYPE": "U",
    "INTLDES": "18084L",
    "EPOCH": "2023-06-24 01:28:44",
    "EPOCH_MICROSECONDS": "407776",
    "MEAN_MOTION": "15.08636213",
    "ECCENTRICITY": "0.0052151",
    "INCLINATION": "98.8934",
    "RA_OF_ASC_NODE": "200.2703",
    "ARG_OF_PERICENTER": "120.4979",
    "MEAN_ANOMALY": "240.141",
    "EPHEMERIS_TYPE": "0",
    "ELEMENT_SET_NO": "999",
    "REV_AT_EPOCH": "25525",
    "BSTAR": "0.0004531",
    "MEAN_MOTION_DOT": "0.00007238",
    "MEAN_MOTION_DDOT": "0",
    "FILE": "3941207",
    "TLE_LINE0": "0 H-2A R/B",
    "TLE_LINE1": "1 43682U 18084L   23175.06162509  .00007238  00000-0  45310-3 0  9997",
    "TLE_LINE2": "2 43682  98.8934 200.2703 0052151 120.4979 240.1410 15.08636213255252",
    "OBJECT_ID": "2018-084L",
    "OBJECT_NUMBER": "43682",
    "SEMIMAJOR_AXIS": "6918.503",
    "PERIOD": "95.450",
    "APOGEE": "576.449",
    "PERIGEE": "504.288",
    "DECAYED": "0"
  },
  {
    "COMMENT": "GENERATED VIA SPACETRACK.ORG API",
    "ORIGINATOR": "18 SPCS",
    "NORAD_CAT_ID": "43682",
    "OBJECT_NAME": "H-2A R/B",
    "OBJECT_TYPE": "ROCKET BODY",
    "CLASSIFICATION_TYPE": "U",
    "INTLDES": "18084L",
    "EPOCH": "2023-06-25 15:40:55",
    "EPOCH_MICROSECONDS": "946784",
    "MEAN_MOTION": "15.08658946",
    "ECCENTRICITY": "0.0052161",
    "INCLINATION": "98.8935",
    "RA_OF_ASC_NODE": "202.1126",
    "ARG_OF_PERICENTER": "115.4491",
    "MEAN_ANOMALY": "245.2143",
    "EPHEMERIS_TYPE": "0",
    "ELEMENT_SET_NO": "999",
    "REV_AT_EPOCH": "25549",
    "BSTAR": "0.0004299",
    "MEAN_MOTION_DOT": "0.00006867",
    "MEAN_MOTION_DDOT": "0",
    "FILE": "3942637",
    "TLE_LINE0": "0 H-2A R/B",
    "TLE_LINE1": "1 43682U 18084L   23176.65342531  .00006867  00000-0  42990-3 0  9996",
    "TLE_LINE2": "2 43682  98.8935 202.1126 0052161 115.4491 245.2143 15.08658946255499",
    "OBJECT_ID": "2018-084L",
    "OBJECT_NUMBER": "43682",
    "SEMIMAJOR_AXIS": "6918.434",
    "PERIOD": "95.449",
    "APOGEE": "576.386",
    "PERIGEE": "504.212",
    "DECAYED": "0"
  },
  {
    "COMMENT": "GENERATED VIA SPACETRACK.ORG API",
    "ORIGINATOR": "18 SPCS",
    "NORAD_CAT_ID": "43682",
    "OBJECT_NAME": "H-2A R/B",
    "OBJECT_TYPE": "ROCKET BODY",
    "CLASSIFICATION_TYPE": "U",
    "INTLDES": "18084L",
    "EPOCH": "2023-06-27 07:28:35",
    "EPOCH_MICROSECONDS": "768640",
    "MEAN_MOTION": "15.08679549",
    "ECCENTRICITY": "0.0052067",
    "INCLINATION": "98.8933",
    "RA_OF_ASC_NODE": "204.0316",
    "ARG_OF_PERICENTER": "110.1722",
    "MEAN_ANOMALY": "250.5114",
    "EPHEMERIS_TYPE": "0",
    "ELEMENT_SET_NO": "999",
    "REV_AT_EPOCH": "25574",
    "BSTAR": "0.00035868",
    "MEAN_MOTION_DOT": "0.00005716",
    "MEAN_MOTION_DDOT": "0",
    "FILE": "3944065",
    "TLE_LINE0": "0 H-2A R/B",
    "TLE_LINE1": "1 43682U 18084L   23178.31152510  .00005716  00000-0  35868-3 0  9995",
    "TLE_LINE2": "2 43682  98.8933 204.0316 0052067 110.1722 250.5114 15.08679549255740",
    "OBJECT_ID": "2018-084L",
    "OBJECT_NUMBER": "43682",
    "SEMIMAJOR_AXIS": "6918.371",
    "PERIOD": "95.448",
    "APOGEE": "576.258",
    "PERIGEE": "504.214",
    "DECAYED": "0"
  },
  {
    "COMMENT": "GENERATED VIA SPACETRACK.ORG API",
    "ORIGINATOR": "18 SPCS",
    "NORAD_CAT_ID": "43682",
    "OBJECT_NAME": "H-2A R/B",
    "OBJECT_TYPE": "ROCKET BODY",
    "CLASSIFICATION_TYPE": "U",
    "INTLDES": "18084L",
    "EPOCH": "2023-06-28 15:18:42",
    "EPOCH_MICROSECONDS": "236640",
    "MEAN_MOTION": "15.08695025",
    "ECCENTRICITY": "0.0051954",
    "INCLINATION": "98.8932",
    "RA_OF_ASC_NODE": "205.5668",
    "ARG_OF_PERICENTER": "105.9281",
    "MEAN_ANOMALY": "254.7677",
    "EPHEMERIS_TYPE": "0",
    "ELEMENT_SET_NO": "999",
    "REV_AT_EPOCH": "25594",
    "BSTAR": "0.00035629",
    "MEAN_MOTION_DOT": "0.00005679",
    "MEAN_MOTION_DDOT": "0",
    "FILE": "3945121",
    "TLE_LINE0": "0 H-2A R/B",
    "TLE_LINE1": "1 43682U 18084L   23179.63798885  .00005679  00000-0  35629-3 0  9995",
    "TLE_LINE2": "2 43682  98.8932 205.5668 0051954 105.9281 254.7677 15.08695025255940",
    "OBJECT_ID": "2018-084L",
    "OBJECT_NUMBER": "43682",
    "SEMIMAJOR_AXIS": "6918.324",
    "PERIOD": "95.447",
    "APOGEE": "576.132",
    "PERIGEE": "504.245",
    "DECAYED": "0"
  },
  {
    "COMMENT": "GENERATED VIA SPACETRACK.ORG API",
    "ORIGINATOR": "18 SPCS",
    "NORAD_CAT_ID": "43682",
    "OBJECT_NAME": "H-2A R/B",
    "OBJECT_TYPE": "ROCKET BODY",
    "CLASSIFICATION_TYPE": "U",
    "INTLDES": "18084L",
    "EPOCH": "2023-06-29 16:46:46",
    "EPOCH_MICROSECONDS": "553088",
    "MEAN_MOTION": "15.08707554",
    "ECCENTRICITY": "0.0051866",
    "INCLINATION": "98.893",
    "RA_OF_ASC_NODE": "206.7951",
    "ARG_OF_PERICENTER": "102.4664",
    "MEAN_ANOMALY": "258.2371",
    "EPHEMERIS_TYPE": "0",
    "ELEMENT_SET_NO": "999",
    "REV_AT_EPOCH": "25610",
    "BSTAR": "0.0003693",
    "MEAN_MOTION_DOT": "0.00005891",
    "MEAN_MOTION_DDOT": "0",
    "FILE": "3945885",
    "TLE_LINE0": "0 H-2A R/B",
    "TLE_LINE1": "1 43682U 18084L   23180.69914992  .00005891  00000-0  36930-3 0  9994",
    "TLE_LINE2": "2 43682  98.8930 206.7951 0051866 102.4664 258.2371 15.08707554256105",
    "OBJECT_ID": "2018-084L",
    "OBJECT_NUMBER": "43682",
    "SEMIMAJOR_AXIS": "6918.285",
    "PERIOD": "95.446",
    "APOGEE": "576.033",
    "PERIGEE": "504.268",
    "DECAYED": "0"
  },
  {
    "COMMENT": "GENERATED VIA SPACETRACK.ORG API",
    "ORIGINATOR": "18 SPCS",
    "NORAD_CAT_ID": "43682",
    "OBJECT_NAME": "H-2A R/B",
    "OBJECT_TYPE": "ROCKET BODY",
    "CLASSIFICATION_TYPE": "U",
    "INTLDES": "18084L",
    "EPOCH": "2023-07-01 00:36:50",
    "EPOCH_MICROSECONDS": "774688",
    "MEAN_MOTION": "15.08723813",
    "ECCENTRICITY": "0.0051867",
    "INCLINATION": "98.8929",
    "RA_OF_ASC_NODE": "208.3302",
    "ARG_OF_PERICENTER": "98.2098",
    "MEAN_ANOMALY": "262.5013",
    "EPHEMERIS_TYPE": "0",
    "ELEMENT_SET_NO": "999",
    "REV_AT_EPOCH": "25630",
    "BSTAR": "0.00036626",
    "MEAN_MOTION_DOT": "0.00005845",
    "MEAN_MOTION_DDOT": "0",
    "FILE": "3946457",
    "TLE_LINE0": "0 H-2A R/B",
    "TLE_LINE1": "1 43682U 18084L   23182.02558767  .00005845  00000-0  36626-3 0  9998",
    "TLE_LINE2": "2 43682  98.8929 208.3302 0051867  98.2098 262.5013 15.08723813256304",
    "OBJECT_ID": "2018-084L",
    "OBJECT_NUMBER": "43682",
    "SEMIMAJOR_AXIS": "6918.236",
    "PERIOD": "95.445",
    "APOGEE": "575.983",
    "PERIGEE": "504.218",
    "DECAYED": "0"
  }
]